[{"OBJECT_NAME":"VSP RF B1","OBJECT_ID":"2024-043AR","EPOCH":"2026-03-09T22:40:29.479296","MEAN_MOTION":15.26694159,"ECCENTRICITY":0.00102608,"INCLINATION":97.5446,"RA_OF_ASC_NODE":204.7052,"ARG_OF_PERICENTER":220.7435,"MEAN_ANOMALY":139.3037,"EPHEMERIS_TYPE":0,"CLASSIFICATION_TYPE":"U","NORAD_CAT_ID":59137,"ELEMENT_SET_NO":999,"REV_AT_EPOCH":11187,"BSTAR":0.00024406819,"MEAN_MOTION_DOT":6.341e-5,"MEAN_MOTION_DDOT":0},{"OBJECT_NAME":"STARLINK-31289","OBJECT_ID":"2024-044X","EPOCH":"2026-03-09T19:26:55.407264","MEAN_MOTION":15.27560669,"ECCENTRICITY":0.00032142,"INCLINATION":43.0075,"RA_OF_ASC_NODE":106.3738,"ARG_OF_PERICENTER":275.0621,"MEAN_ANOMALY":84.9864,"EPHEMERIS_TYPE":0,"CLASSIFICATION_TYPE":"U","NORAD_CAT_ID":59173,"ELEMENT_SET_NO":999,"REV_AT_EPOCH":11361,"BSTAR":1.3801012e-5,"MEAN_MOTION_DOT":1.17e-6,"MEAN_MOTION_DDOT":0}]
